{
    "links": {
        "self": "http://www.neowsapp.com/rest/v1/neo/3710921?api_key=iIulBulltgU6a56xZRHN4H3l9WmuAYTsLGpBGhQ2"
    },
    "id": "3710921",
    "neo_reference_id": "3710921",
    "name": "(2015 DT53)",
    "designation": "2015 DT53",
    "nasa_jpl_url": "http://ssd.jpl.nasa.gov/sbdb.cgi?sstr=3710921",
    "absolute_magnitude_h": 25.5,
    "estimated_diameter": {
        "kilometers": {
            "estimated_diameter_min": 0.0211132445,
            "estimated_diameter_max": 0.0472106499
        },
        "meters": {
            "estimated_diameter_min": 21.113244479,
            "estimated_diameter_max": 47.2106498806
        },
        "miles": {
            "estimated_diameter_min": 0.0131191578,
            "estimated_diameter_max": 0.0293353287
        },
        "feet": {
            "estimated_diameter_min": 69.2691770164,
            "estimated_diameter_max": 154.8905885541
        }
    },
    "is_potentially_hazardous_asteroid": false,
    "close_approach_data": [
        {
            "close_approach_date": "2015-02-06",
            "close_approach_date_full": "2015-Feb-06 13:08",
            "epoch_date_close_approach": 1423228080000,
            "relative_velocity": {
                "kilometers_per_second": "7.1928892384",
                "kilometers_per_hour": "25894.4012582733",
                "miles_per_hour": "16089.7739373977"
            },
            "miss_distance": {
                "astronomical": "0.0499408551",
                "lunar": "19.4269926339",
                "kilometers": "7471045.548938637",
                "miles": "4642292.4381497106"
            },
            "orbiting_body": "Earth"
        }
    ],
    "orbital_data": {
        "orbit_id": "7",
        "orbit_determination_date": "2017-04-06 08:35:33",
        "first_observation_date": "2015-02-18",
        "last_observation_date": "2015-03-15",
        "data_arc_in_days": 25,
        "observations_used": 34,
        "orbit_uncertainty": "8",
        "minimum_orbit_intersection": ".0463857",
        "jupiter_tisserand_invariant": "3.587",
        "epoch_osculation": "2457074.5",
        "eccentricity": ".5149906137010855",
        "semi_major_axis": "2.076251616667248",
        "inclination": "3.758293214161984",
        "ascending_node_longitude": "344.4255043840009",
        "orbital_period": "1092.743928901468",
        "perihelion_distance": "1.007001522401911",
        "perihelion_argument": "134.6673744044162",
        "aphelion_distance": "3.145501710932585",
        "perihelion_time": "2457045.518484845427",
        "mean_anomaly": "9.547841154454998",
        "mean_motion": ".3294458934783623",
        "equinox": "J2000",
        "orbit_class": {
            "orbit_class_type": "APO",
            "orbit_class_description": "Near-Earth asteroid orbits which cross the Earth’s orbit similar to that of 1862 Apollo",
            "orbit_class_range": "a (semi-major axis) > 1.0 AU; q (perihelion) < 1.017 AU"
        }
    },
    "is_sentry_object": false
}